STARLINK-2427
1 27837C 21018BC  21325.13385557  .00005553  00000-0  37216-3 0  3254
2 27837  53.0554  77.6351 0001249  74.7789 345.3466 15.06386049    14
